[{"OBJECT_NAME":"STARLINK-32259","OBJECT_ID":"2024-155P","EPOCH":"2026-03-09T11:05:03.865056","MEAN_MOTION":15.30184006,"ECCENTRICITY":0.00011835,"INCLINATION":53.1608,"RA_OF_ASC_NODE":130.8932,"ARG_OF_PERICENTER":80.5241,"MEAN_ANOMALY":279.5894,"EPHEMERIS_TYPE":0,"CLASSIFICATION_TYPE":"U","NORAD_CAT_ID":60937,"ELEMENT_SET_NO":999,"REV_AT_EPOCH":8630,"BSTAR":-7.598145e-6,"MEAN_MOTION_DOT":-5.84e-6,"MEAN_MOTION_DDOT":0},{"OBJECT_NAME":"GEOSCAN 4 (RS92S4)","OBJECT_ID":"2025-155S","EPOCH":"2026-03-09T21:50:07.724832","MEAN_MOTION":15.30369837,"ECCENTRICITY":0.00070968,"INCLINATION":97.4465,"RA_OF_ASC_NODE":37.7626,"ARG_OF_PERICENTER":154.7045,"MEAN_ANOMALY":205.4544,"EPHEMERIS_TYPE":0,"CLASSIFICATION_TYPE":"U","NORAD_CAT_ID":64892,"ELEMENT_SET_NO":999,"REV_AT_EPOCH":6562,"BSTAR":0.00068609503,"MEAN_MOTION_DOT":0.00020121,"MEAN_MOTION_DDOT":0}]
